{"fetched_at":"2026-07-24T07:06:38.450Z","source":"https://celestrak.org/NORAD/elements/gp.php?NAME=KINEIS&FORMAT=JSON","constellation":"kineis","records":[{"OBJECT_NAME":"KINEIS-2D","OBJECT_ID":"2025-028C","EPOCH":"2026-07-23T09:28:51.561408","CLASSIFICATION_TYPE":"U","MEAN_MOTION":14.7578702,"ECCENTRICITY":0.0004789,"INCLINATION":97.9267,"RA_OF_ASC_NODE":256.1419,"ARG_OF_PERICENTER":91.7162,"MEAN_ANOMALY":268.4596,"EPHEMERIS_TYPE":0,"NORAD_CAT_ID":62930,"ELEMENT_SET_NO":999,"REV_AT_EPOCH":7805,"BSTAR":0.00020451,"MEAN_MOTION_DOT":0.00001351,"MEAN_MOTION_DDOT":0},{"OBJECT_NAME":"KINEIS-2E","OBJECT_ID":"2025-028D","EPOCH":"2026-07-23T14:28:23.682432","CLASSIFICATION_TYPE":"U","MEAN_MOTION":14.77103986,"ECCENTRICITY":0.0002042,"INCLINATION":97.8936,"RA_OF_ASC_NODE":255.459,"ARG_OF_PERICENTER":87.6358,"MEAN_ANOMALY":272.5086,"EPHEMERIS_TYPE":0,"NORAD_CAT_ID":62931,"ELEMENT_SET_NO":999,"REV_AT_EPOCH":7815,"BSTAR":0.00017503,"MEAN_MOTION_DOT":0.00001186,"MEAN_MOTION_DDOT":0},{"OBJECT_NAME":"KINEIS-2A","OBJECT_ID":"2025-028E","EPOCH":"2026-07-23T03:43:22.506240","CLASSIFICATION_TYPE":"U","MEAN_MOTION":14.73465175,"ECCENTRICITY":0.0005721,"INCLINATION":98.1281,"RA_OF_ASC_NODE":259.5983,"ARG_OF_PERICENTER":64.2676,"MEAN_ANOMALY":295.9122,"EPHEMERIS_TYPE":0,"NORAD_CAT_ID":62932,"ELEMENT_SET_NO":999,"REV_AT_EPOCH":7790,"BSTAR":0.00017861,"MEAN_MOTION_DOT":0.00001108,"MEAN_MOTION_DDOT":0},{"OBJECT_NAME":"KINEIS-2B","OBJECT_ID":"2025-028G","EPOCH":"2026-07-23T09:41:58.471008","CLASSIFICATION_TYPE":"U","MEAN_MOTION":14.73465728,"ECCENTRICITY":0.000446,"INCLINATION":97.965,"RA_OF_ASC_NODE":256.6067,"ARG_OF_PERICENTER":54.6396,"MEAN_ANOMALY":305.5229,"EPHEMERIS_TYPE":0,"NORAD_CAT_ID":62934,"ELEMENT_SET_NO":999,"REV_AT_EPOCH":7799,"BSTAR":0.00017329,"MEAN_MOTION_DOT":0.00001076,"MEAN_MOTION_DDOT":0},{"OBJECT_NAME":"KINEIS-4E","OBJECT_ID":"2025-056A","EPOCH":"2026-07-23T19:30:18.182016","CLASSIFICATION_TYPE":"U","MEAN_MOTION":14.72322283,"ECCENTRICITY":0.0002739,"INCLINATION":97.9075,"RA_OF_ASC_NODE":327.6994,"ARG_OF_PERICENTER":71.2638,"MEAN_ANOMALY":288.8866,"EPHEMERIS_TYPE":0,"NORAD_CAT_ID":63300,"ELEMENT_SET_NO":999,"REV_AT_EPOCH":7251,"BSTAR":0.00024099,"MEAN_MOTION_DOT":0.00001476,"MEAN_MOTION_DDOT":0},{"OBJECT_NAME":"KINEIS-4C","OBJECT_ID":"2025-056B","EPOCH":"2026-07-22T14:26:25.360224","CLASSIFICATION_TYPE":"U","MEAN_MOTION":14.7234037,"ECCENTRICITY":0.00033611,"INCLINATION":97.9128,"RA_OF_ASC_NODE":326.7756,"ARG_OF_PERICENTER":186.3805,"MEAN_ANOMALY":173.736,"EPHEMERIS_TYPE":0,"NORAD_CAT_ID":63301,"ELEMENT_SET_NO":999,"REV_AT_EPOCH":7234,"BSTAR":0.00021109515,"MEAN_MOTION_DOT":0.00001287,"MEAN_MOTION_DDOT":0},{"OBJECT_NAME":"KINEIS-4D","OBJECT_ID":"2025-056C","EPOCH":"2026-07-23T19:53:08.186208","CLASSIFICATION_TYPE":"U","MEAN_MOTION":14.72223727,"ECCENTRICITY":0.0002172,"INCLINATION":97.905,"RA_OF_ASC_NODE":327.9336,"ARG_OF_PERICENTER":184.0866,"MEAN_ANOMALY":176.0324,"EPHEMERIS_TYPE":0,"NORAD_CAT_ID":63302,"ELEMENT_SET_NO":999,"REV_AT_EPOCH":7252,"BSTAR":0.00026633,"MEAN_MOTION_DOT":0.00001632,"MEAN_MOTION_DDOT":0},{"OBJECT_NAME":"KINEIS-4A","OBJECT_ID":"2025-056D","EPOCH":"2026-07-23T19:05:49.253280","CLASSIFICATION_TYPE":"U","MEAN_MOTION":14.72303367,"ECCENTRICITY":0.0002592,"INCLINATION":97.9144,"RA_OF_ASC_NODE":327.8635,"ARG_OF_PERICENTER":137.0929,"MEAN_ANOMALY":223.0481,"EPHEMERIS_TYPE":0,"NORAD_CAT_ID":63303,"ELEMENT_SET_NO":999,"REV_AT_EPOCH":7251,"BSTAR":0.00024527,"MEAN_MOTION_DOT":0.00001502,"MEAN_MOTION_DDOT":0},{"OBJECT_NAME":"KINEIS-4B","OBJECT_ID":"2025-056E","EPOCH":"2026-07-23T12:09:23.195808","CLASSIFICATION_TYPE":"U","MEAN_MOTION":14.72288108,"ECCENTRICITY":0.0005984,"INCLINATION":97.9156,"RA_OF_ASC_NODE":327.6407,"ARG_OF_PERICENTER":167.5177,"MEAN_ANOMALY":192.618,"EPHEMERIS_TYPE":0,"NORAD_CAT_ID":63304,"ELEMENT_SET_NO":999,"REV_AT_EPOCH":7246,"BSTAR":0.000083507,"MEAN_MOTION_DOT":0.00000479,"MEAN_MOTION_DDOT":0}]}
