KINEIS-2D               
1 62930U 25028C   26204.39504122  .00001351  00000+0  20451-3 0  9991
2 62930  97.9267 256.1419 0004789  91.7162 268.4596 14.75787020 78055
KINEIS-2E               
1 62931U 25028D   26204.60305188  .00001186  00000+0  17503-3 0  9997
2 62931  97.8936 255.4590 0002042  87.6358 272.5086 14.77103986 78157
KINEIS-2A               
1 62932U 25028E   26204.15512160  .00001108  00000+0  17861-3 0  9999
2 62932  98.1281 259.5983 0005721  64.2676 295.9122 14.73465175 77906
KINEIS-2B               
1 62934U 25028G   26204.40414897  .00001076  00000+0  17329-3 0  9990
2 62934  97.9650 256.6067 0004460  54.6396 305.5229 14.73465728 77996
KINEIS-4E               
1 63300U 25056A   26204.81271044  .00001476  00000+0  24099-3 0  9995
2 63300  97.9075 327.6994 0002739  71.2638 288.8866 14.72322283 72514
KINEIS-4C               
1 63301U 25056B   26203.60168241  .00001287  00000+0  21110-3 0  9997
2 63301  97.9128 326.7756 0003361 186.3805 173.7360 14.72340370 72345
KINEIS-4D               
1 63302U 25056C   26204.82856697  .00001632  00000+0  26633-3 0  9991
2 63302  97.9050 327.9336 0002172 184.0866 176.0324 14.72223727 72520
KINEIS-4A               
1 63303U 25056D   26204.79570895  .00001502  00000+0  24527-3 0  9997
2 63303  97.9144 327.8635 0002592 137.0929 223.0481 14.72303367 72515
KINEIS-4B               
1 63304U 25056E   26204.50651847  .00000479  00000+0  83507-4 0  9990
2 63304  97.9156 327.6407 0005984 167.5177 192.6180 14.72288108 72461
